NORAD_CAT_ID,OBJECT_NAME,OBJECT_TYPE,EPOCH,MEAN_MOTION,ECCENTRICITY,INCLINATION,RA_OF_ASC_NODE,ARG_OF_PERICENTER,MEAN_ANOMALY,BSTAR,MEAN_MOTION_DOT,MEAN_MOTION_DDOT,TLE_LINE0,TLE_LINE1,TLE_LINE2,SEMIMAJOR_AXIS,PERIOD,APOGEE,PERIGEE,DECAYED
52105.0,STARLINK-3706,PAYLOAD,2023-07-27 20:28:20,15.08833281,8.6e-05,53.2174,50.0396,100.7781,259.3308,-9.6687e-06,-4.42e-06,0.0,0 STARLINK-3706,1 52105U 22029T   23208.85301430 -.00000442  00000-0 -96687-5 0  9990,2 52105  53.2174  50.0396 0000860 100.7781 259.3308 15.08833281 76482,6917.901,95.438,540.361,539.171,0.0
52105.0,STARLINK-3706,PAYLOAD,2023-07-27 23:39:06,15.08834813,9.42e-05,53.2172,49.4445,100.0565,260.0534,3.1646e-06,-2.37e-06,0.0,0 STARLINK-3706,1 52105U 22029T   23208.98549346 -.00000237  00000-0  31646-5 0  9999,2 52105  53.2172  49.4445 0000942 100.0565 260.0534 15.08834813 76506,6917.896,95.438,540.413,539.11,0.0
52105.0,STARLINK-3706,PAYLOAD,2023-07-28 13:57:35,15.08830182,0.0001085,53.2168,46.7681,101.5891,258.5223,3.6915e-05,3e-06,0.0,0 STARLINK-3706,1 52105U 22029T   23209.58165700  .00000300  00000-0  36915-4 0  9997,2 52105  53.2168  46.7681 0001085 101.5891 258.5223 15.08830182 76591,6917.91,95.438,540.526,539.025,0.0
52105.0,STARLINK-3706,PAYLOAD,2023-07-28 23:29:53,15.0884434,0.0001045,53.2177,44.9852,95.426,264.6851,-5.3606e-06,-3.73e-06,0.0,0 STARLINK-3706,1 52105U 22029T   23209.97909115 -.00000373  00000-0 -53606-5 0  9995,2 52105  53.2177  44.9852 0001045  95.4260 264.6851 15.08844340 76651,6917.867,95.437,540.455,539.009,0.0
52105.0,STARLINK-3706,PAYLOAD,2023-07-30 18:25:18,15.08840796,0.0001044,53.2179,36.956,84.591,275.5202,6.0565e-05,6.76e-06,0.0,0 STARLINK-3706,1 52105U 22029T   23211.76757698  .00000676  00000-0  60565-4 0  9997,2 52105  53.2179  36.9560 0001044  84.5910 275.5202 15.08840796 76922,6917.878,95.438,540.465,539.021,0.0
52105.0,STARLINK-3706,PAYLOAD,2023-07-30 23:11:27,15.08847216,9.78e-05,53.2166,36.064,96.6985,263.4119,0.00012416,1.689e-05,0.0,0 STARLINK-3706,1 52105U 22029T   23211.96629001  .00001689  00000-0  12416-3 0  9991,2 52105  53.2166  36.0640 0000978  96.6985 263.4119 15.08847216 76959,6917.858,95.437,540.4,539.047,0.0
52105.0,STARLINK-3706,PAYLOAD,2023-07-31 05:33:00,15.08837683,0.0001108,53.2168,34.8745,83.5798,276.532,8.6568e-07,-2.74e-06,0.0,0 STARLINK-3706,1 52105U 22029T   23212.23125499 -.00000274  00000-0  86568-6 0  9996,2 52105  53.2168  34.8745 0001108  83.5798 276.5320 15.08837683 76996,6917.887,95.438,540.519,538.986,0.0
52105.0,STARLINK-3706,PAYLOAD,2023-07-31 18:16:06,15.08829569,7.51e-05,53.2173,32.4962,117.2162,242.8906,-0.00013736,-2.472e-05,0.0,0 STARLINK-3706,1 52105U 22029T   23212.76118329 -.00002472  00000-0 -13736-3 0  9995,2 52105  53.2173  32.4962 0000751 117.2162 242.8906 15.08829569 77070,6917.912,95.438,540.297,539.258,0.0
52105.0,STARLINK-3706,PAYLOAD,2023-08-01 18:06:53,15.0885489,9.53e-05,53.2163,28.0355,80.1082,280.0017,0.00074326,0.00011566,0.0,0 STARLINK-3706,1 52105U 22029T   23213.75478233  .00011566  00000-0  74326-3 0  9992,2 52105  53.2163  28.0355 0000953  80.1082 280.0017 15.08854890 77228,6917.835,95.437,540.359,539.041,0.0
52105.0,STARLINK-3706,PAYLOAD,2023-08-02 17:57:39,15.08860573,0.0001162,53.2168,23.5749,89.1658,270.9467,0.00044162,6.751e-05,0.0,0 STARLINK-3706,1 52105U 22029T   23214.74837520  .00006751  00000-0  44162-3 0  9995,2 52105  53.2168  23.5749 0001162  89.1658 270.9467 15.08860573 77379,6917.818,95.436,540.486,538.879,0.0
52105.0,STARLINK-3706,PAYLOAD,2023-08-03 17:48:26,15.0884932,9.9e-05,53.2173,19.1146,96.6442,263.4662,5.3296e-05,5.61e-06,0.0,0 STARLINK-3706,1 52105U 22029T   23215.74197286  .00000561  00000-0  53296-4 0  9996,2 52105  53.2173  19.1146 0000990  96.6442 263.4662 15.08849320 77527,6917.852,95.437,540.402,539.032,0.0
52105.0,STARLINK-3706,PAYLOAD,2023-08-04 11:17:41,15.08838722,0.0001014,53.2173,15.844,96.8087,263.3021,-6.0371e-05,-1.248e-05,0.0,0 STARLINK-3706,1 52105U 22029T   23216.47061661 -.00001248  00000-0 -60371-4 0  9991,2 52105  53.2173  15.8440 0001014  96.8087 263.3021 15.08838722 77636,6917.884,95.438,540.451,539.048,0.0
52105.0,STARLINK-3706,PAYLOAD,2023-08-05 15:54:37,15.08848245,0.0001024,53.2183,10.4937,100.9607,259.15,0.00024346,3.59e-05,0.0,0 STARLINK-3706,1 52105U 22029T   23217.66293413  .00003590  00000-0  24346-3 0  9996,2 52105  53.2183  10.4937 0001024 100.9607 259.1500 15.08848245 77811,6917.855,95.437,540.429,539.012,0.0
52105.0,STARLINK-3706,PAYLOAD,2023-08-05 20:40:46,15.08863321,0.0001056,53.2181,9.6005,100.9802,259.1309,0.00035845,5.425e-05,0.0,0 STARLINK-3706,1 52105U 22029T   23217.86164442  .00005425  00000-0  35845-3 0  9992,2 52105  53.2181   9.6005 0001056 100.9802 259.1309 15.08863321 77849,6917.809,95.436,540.405,538.944,0.0
52105.0,STARLINK-3706,PAYLOAD,2023-08-06 09:23:52,15.08823605,0.0001208,53.2173,7.2208,89.1097,271.0034,-0.00018926,-3.297e-05,0.0,0 STARLINK-3706,1 52105U 22029T   23218.39158504 -.00003297  00000-0 -18926-3 0  9991,2 52105  53.2173   7.2208 0001208  89.1097 271.0034 15.08823605 77920,6917.931,95.439,540.631,538.96,0.0
52105.0,STARLINK-3706,PAYLOAD,2023-08-07 10:50:04,15.08823943,8.77e-05,53.217,2.4635,90.3026,269.8066,7.8469e-06,-1.63e-06,0.0,0 STARLINK-3706,1 52105U 22029T   23219.45143922 -.00000163  00000-0  78469-5 0  9995,2 52105  53.2170   2.4635 0000877  90.3026 269.8066 15.08823943 78088,6917.929,95.439,540.401,539.188,0.0
52105.0,STARLINK-3706,PAYLOAD,2023-08-07 17:11:36,15.08838126,8.81e-05,53.2174,1.2729,73.3736,286.7353,0.00032451,4.88e-05,0.0,0 STARLINK-3706,1 52105U 22029T   23219.71639762  .00004880  00000-0  32451-3 0  9994,2 52105  53.2174   1.2729 0000881  73.3736 286.7353 15.08838126 78128,6917.886,95.438,540.361,539.142,0.0
52105.0,STARLINK-3706,PAYLOAD,2023-08-08 09:05:27,15.08867352,9.9e-05,53.2167,358.2998,61.7876,298.3216,0.0012469,0.00019627,0.0,0 STARLINK-3706,1 52105U 22029T   23220.37879622  .00019627  00000-0  12469-2 0  9990,2 52105  53.2167 358.2998 0000990  61.7876 298.3216 15.08867352 78221,6917.797,95.436,540.347,538.977,0.0
52105.0,STARLINK-3706,PAYLOAD,2023-08-09 08:56:14,15.08851867,6.43e-05,53.2166,353.8397,61.1918,298.9139,0.00065753,0.00010196,0.0,0 STARLINK-3706,1 52105U 22029T   23221.37238538  .00010196  00000-0  65753-3 0  9993,2 52105  53.2166 353.8397 0000643  61.1918 298.9139 15.08851867 78370,6917.844,95.437,540.154,539.264,0.0
52105.0,STARLINK-3706,PAYLOAD,2023-08-09 15:17:46,15.08851819,8.33e-05,53.2166,352.65,59.0527,301.0547,0.00020877,3.037e-05,0.0,0 STARLINK-3706,1 52105U 22029T   23221.63734428  .00003037  00000-0  20877-3 0  9995,2 52105  53.2166 352.6500 0000833  59.0527 301.0547 15.08851819 78417,6917.844,95.437,540.286,539.133,0.0
52105.0,STARLINK-3706,PAYLOAD,2023-08-10 08:47:01,15.08840546,0.0001035,53.2165,349.3797,67.9334,292.1768,0.00046601,7.137e-05,0.0,0 STARLINK-3706,1 52105U 22029T   23222.36598897  .00007137  00000-0  46601-3 0  9992,2 52105  53.2165 349.3797 0001035  67.9334 292.1768 15.08840546 78528,6917.879,95.438,540.46,539.028,0.0
52105.0,STARLINK-3706,PAYLOAD,2023-08-11 08:37:48,15.08840738,0.0001051,53.2175,344.9204,76.0896,284.0213,0.00014286,1.987e-05,0.0,0 STARLINK-3706,1 52105U 22029T   23223.35958881  .00001987  00000-0  14286-3 0  9996,2 52105  53.2175 344.9204 0001051  76.0896 284.0213 15.08840738 78679,6917.878,95.438,540.47,539.016,0.0
52105.0,STARLINK-3706,PAYLOAD,2023-08-11 18:10:06,15.08850199,8.8e-05,53.2171,343.1347,81.1791,278.9301,0.00025343,3.749e-05,0.0,0 STARLINK-3706,1 52105U 22029T   23223.75702317  .00003749  00000-0  25343-3 0  9995,2 52105  53.2171 343.1347 0000880  81.1791 278.9301 15.08850199 78733,6917.849,95.437,540.323,539.105,0.0
52105.0,STARLINK-3706,PAYLOAD,2023-08-12 08:28:35,15.08833826,7.41e-05,53.2175,340.4602,66.2102,293.8968,-1.3469e-05,-5.02e-06,0.0,0 STARLINK-3706,1 52105U 22029T   23224.35319155 -.00000502  00000-0 -13469-4 0  9999,2 52105  53.2175 340.4602 0000741  66.2102 293.8968 15.08833826 78820,6917.899,95.438,540.277,539.252,0.0
52105.0,STARLINK-3706,PAYLOAD,2023-08-12 14:50:07,15.08848098,0.0001942,53.2171,339.269,94.7537,265.3677,0.00014065,1.951e-05,0.0,0 STARLINK-3706,1 52105U 22029T   23224.61814431  .00001951  00000-0  14065-3 0  9994,2 52105  53.2171 339.2690 0001942  94.7537 265.3677 15.08848098 78863,6917.856,95.437,541.064,538.377,0.0
52105.0,STARLINK-3706,PAYLOAD,2023-08-13 00:22:26,15.08844204,7.7e-05,53.2162,337.4852,73.1866,286.9211,2.2191e-05,6.6e-07,0.0,0 STARLINK-3706,1 52105U 22029T   23225.01558585  .00000066  00000-0  22191-4 0  9990,2 52105  53.2162 337.4852 0000770  73.1866 286.9211 15.08844204 78922,6917.868,95.437,540.265,539.2,0.0
52105.0,STARLINK-3706,PAYLOAD,2023-08-13 13:05:32,15.08836186,0.0001126,53.218,335.107,91.0226,269.0895,-1.4978e-06,-3.12e-06,0.0,0 STARLINK-3706,1 52105U 22029T   23225.54551195 -.00000312  00000-0 -14978-5 0  9999,2 52105  53.2180 335.1070 0001126  91.0226 269.0895 15.08836186 79004,6917.892,95.438,540.536,538.978,0.0
52105.0,STARLINK-3706,PAYLOAD,2023-08-15 00:04:01,15.08833433,2.19e-05,53.2196,328.5656,229.8513,130.246,8.6972e-05,1.097e-05,0.0,0 STARLINK-3706,1 52105U 22029T   23227.00279296  .00001097  00000-0  86972-4 0  9992,2 52105  53.2196 328.5656 0000219 229.8513 130.2460 15.08833433 79222,6917.9,95.438,539.917,539.614,0.0
52105.0,STARLINK-3706,PAYLOAD,2023-08-15 23:54:47,15.08846867,9.54e-05,53.2173,324.1029,67.5832,292.5262,0.00012005,1.624e-05,0.0,0 STARLINK-3706,1 52105U 22029T   23227.99638650  .00001624  00000-0  12005-3 0  9994,2 52105  53.2173 324.1029 0000954  67.5832 292.5262 15.08846867 79373,6917.859,95.437,540.384,539.064,0.0
52105.0,STARLINK-3706,PAYLOAD,2023-08-16 11:02:30,15.08839292,0.0001011,53.2148,322.0229,75.3931,284.7174,5.1801e-05,5.37e-06,0.0,0 STARLINK-3706,1 52105U 22029T   23228.46007245  .00000537  00000-0  51801-4 0  9997,2 52105  53.2148 322.0229 0001011  75.3931 284.7174 15.08839292 79443,6917.883,95.438,540.447,539.048,0.0
